{
  "norad_id": 59933,
  "name": "STARLINK-31853",
  "history": [
    {
      "epoch": "2026-03-28T15:48:05.409216Z",
      "apogee_km": 484.9450007598134,
      "perigee_km": 480.78723287102275,
      "latitude_deg": 8.700257088087989e-06,
      "longitude_deg": 162.3113903971627,
      "height_km": 481.7624173668612,
      "semi_major_axis_km": 6861.003116815418,
      "eccentricity": 0.000303,
      "inclination_deg": 42.9945,
      "raan_deg": 225.4096,
      "arg_perigee_deg": 295.0706,
      "mean_anomaly_deg": 64.9831,
      "mean_motion_rev_day": 15.2764111
    }
  ]
}